HST                     
1 20580U 90037B   24189.43690992  .00004627  00000+0  21201-3 0  9997
2 20580  28.4668 209.4325 0002309 250.0269 110.0075 15.18002489680112
SL-14 R/B               
1 19574U 88093B   24190.20470852  .00000576  00000+0  65373-4 0  9993
2 19574  82.5309 253.7070 0019683 252.2160 161.5429 14.84508098931664
SL-16 R/B               
1 19650U 88102B   24189.58969121 -.00000061  00000+0 -64698-5 0  9991
2 19650  71.0002 355.0611 0015794 225.6674 134.3155 14.15979594840527
INTERCOSMOS 24          
1 20261U 89080A   24189.83469640  .00000421  00000+0  12570-3 0  9994
2 20261  82.6082 140.7713 1193129 266.5289  79.8931 12.58097370589658
SL-14 R/B               
1 20262U 89080C   24189.42627032  .00000392  00000+0  10984-3 0  9995
2 20262  82.5912 204.9098 1234385 139.0701 231.0037 12.49710980583890
DELTA 1 R/B             
1 20323U 89089B   24189.84166461  .00000506  00000+0  13701-3 0  9999
2 20323  97.1163 121.3408 0068777 246.7249 112.6698 14.49572520827871
ARIANE 40 R/B           
1 20443U 90005H   24189.74723695  .00000458  00000+0  16221-3 0  9995
2 20443  98.3927 254.8477 0009359 232.9786 127.0546 14.38992643805314
DELTA 2 R/B(1)          
1 20453U 90008B   24189.86562961  .00011279  00000+0  41514-3 0  9995
2 20453  35.6191  66.1901 0198840 206.7241 152.3118 15.10523741832650
COSMOS 2058             
1 20465U 90010A   24189.80392310  .00004769  00000+0  34455-3 0  9996
2 20465  82.4876 284.3083 0012723 232.0938 127.9138 15.03809266871438
SL-14 R/B               
1 20466U 90010B   24190.19503876  .00000623  00000+0  74350-4 0  9996
2 20466  82.5034 119.4102 0021064 143.9069 216.3573 14.82487325859200
SL-14 R/B               
1 20511U 90018B   24189.76695466  .00000562  00000+0  69330-4 0  9997
2 20511  82.5213  72.8094 0015251 301.0417  58.9299 14.81097396853356
SL-16 R/B               
1 20625U 90046B   24190.16379831  .00000102  00000+0  77641-4 0  9999
2 20625  70.9996 137.8760 0013252 159.4581 200.7078 14.14847766762428
COSMOS 2084             
1 20663U 90055A   24189.44766364  .00002805  00000+0  21925-3 0  9996
2 20663  62.7901 248.1739 0109700 122.0374 239.1436 14.98984025844604
SL-6 R/B(2)             
1 20666U 90055D   24189.83695667  .00002498  00000+0  21069-3 0  9996
2 20666  62.7831 160.7832 0083124 145.2481 215.4086 14.98337244846097
SL-8 R/B                
1 20775U 90078B   24189.77448501  .00009905  00000+0  39345-3 0  9994
2 20775  82.9148  68.6171 0465284 226.3074 129.8699 14.61373927719326
SL-8 R/B                
1 21088U 91006B   24189.60744262  .00000088  00000+0  72993-4 0  9999
2 21088  82.9420 263.8510 0021281 305.9320 167.2519 13.77352733680081
OKEAN-3                 
1 21397U 91039A   24189.53721272  .00003028  00000+0  25085-3 0  9992
2 21397  82.5178 205.4439 0014664 236.5043 123.4780 14.98458113773440
COSMOS 2151             
1 21422U 91042A   24189.84092960  .00002177  00000+0  19179-3 0  9995
2 21422  82.5004 310.1778 0012358 320.7995  39.2330 14.95974363793025
SL-14 R/B               
1 21423U 91042B   24189.76648516  .00000574  00000+0  71246-4 0  9994
2 21423  82.4930  71.7865 0018863  84.7654 275.5711 14.80821786783814
ERS-1                   
1 21574U 91050A   24190.21614969  .00000310  00000+0  11595-3 0  9995
2 21574  98.7777 182.3857 0031824 207.5497 152.4004 14.38576831728056
ARIANE 40 R/B           
1 21610U 91050F   24189.41621132  .00000499  00000+0  16538-3 0  9996
2 21610  98.2888 250.7554 0004343 115.4869 244.6771 14.41916784731019
INTERCOSMOS 25          
1 21819U 91086A   24189.41859038  .00001427  00000+0  28223-3 0  9990
2 21819  82.6063 318.1760 1500172 349.7589   7.5785 12.08919786422848
SL-8 R/B                
1 21876U 92008B   24189.60298333  .00000023  00000+0  81632-5 0  9990
2 21876  82.9274   1.4336 0035626  40.3578  28.6241 13.75833843625522
SL-8 R/B                
1 21938U 92020B   24189.61318353  .00000074  00000+0  61322-4 0  9998
2 21938  82.9293 246.8310 0028795 197.9331 270.2808 13.75426019617263
USA 81                  
1 21949U 92023A   24189.86519270  .00000289  00000+0  10035-3 0  9993
2 21949  85.0088 123.2205 0002157 110.1343 250.0082 14.31920885  7509
COSMOS 2219             
1 22219U 92076A   24190.21681416 -.00000098  00000+0 -26773-4 0  9992
2 22219  71.0593 211.9750 0016433  45.0819 315.1633 14.13880840632552
SL-16 R/B               
1 22220U 92076B   24189.61162461  .00000295  00000+0  17167-3 0  9993
2 22220  71.0006  33.3358 0014644 300.2767 120.7749 14.16670282635420
COSMOS 2221             
1 22236U 92080A   24189.44802687  .00002505  00000+0  24466-3 0  9993
2 22236  82.5068 141.8063 0017414  79.5250 280.7931 14.91902569689654
SL-16 R/B               
1 22285U 92093B   24190.17838588 -.00000239  00000+0 -98382-4 0  9995
2 22285  71.0195 203.6424 0003962 190.3168 169.7874 14.15267283627234
COSMOS 2228             
1 22286U 92094A   24189.85060322  .00002434  00000+0  23442-3 0  9994
2 22286  82.5197  99.3222 0019135 185.8217 174.2784 14.92421381706003
SL-16 R/B               
1 22566U 93016B   24189.38289512  .00000352  00000+0  20565-3 0  9992
2 22566  71.0081  56.8674 0010327 183.5542 176.5509 14.15142808615826
