OBJECT_NAME,OBJECT_ID,EPOCH,MEAN_MOTION,ECCENTRICITY,INCLINATION,RA_OF_ASC_NODE,ARG_OF_PERICENTER,MEAN_ANOMALY,EPHEMERIS_TYPE,CLASSIFICATION_TYPE,NORAD_CAT_ID,ELEMENT_SET_NO,REV_AT_EPOCH,BSTAR,MEAN_MOTION_DOT,MEAN_MOTION_DDOT
SL-14 R/B,1988-093B,2024-07-08T04:54:46.816128,14.84508098,.0019683,82.5309,253.7070,252.2160,161.5429,0,U,19574,999,93166,.65373E-4,.576E-5,0
SL-16 R/B,1988-102B,2024-07-07T14:09:09.320544,14.15979594,.0015794,71.0002,355.0611,225.6674,134.3155,0,U,19650,999,84052,-.64698E-5,-.61E-6,0
INTERCOSMOS 24,1989-080A,2024-07-07T20:01:57.768960,12.58097370,.1193129,82.6082,140.7713,266.5289,79.8931,0,U,20261,999,58965,.1257E-3,.421E-5,0
SL-14 R/B,1989-080C,2024-07-07T10:13:49.755648,12.49710980,.1234385,82.5912,204.9098,139.0701,231.0037,0,U,20262,999,58389,.10984E-3,.392E-5,0
DELTA 1 R/B,1989-089B,2024-07-07T20:11:59.822304,14.49572520,.0068777,97.1163,121.3408,246.7249,112.6698,0,U,20323,999,82787,.13701E-3,.506E-5,0
ARIANE 40 R/B,1990-005H,2024-07-07T17:56:01.272480,14.38992643,.0009359,98.3927,254.8477,232.9786,127.0546,0,U,20443,999,80531,.16221E-3,.458E-5,0
DELTA 2 R/B(1),1990-008B,2024-07-07T20:46:30.398304,15.10523741,.019884,35.6191,66.1901,206.7241,152.3118,0,U,20453,999,83265,.41514E-3,.11279E-3,0
COSMOS 2058,1990-010A,2024-07-07T19:17:38.955840,15.03809266,.0012723,82.4876,284.3083,232.0938,127.9138,0,U,20465,999,87143,.34455E-3,.4769E-4,0
SL-14 R/B,1990-010B,2024-07-08T04:40:51.348864,14.82487325,.0021064,82.5034,119.4102,143.9069,216.3573,0,U,20466,999,85920,.7435E-4,.623E-5,0
SL-14 R/B,1990-018B,2024-07-07T18:24:24.882624,14.81097396,.0015251,82.5213,72.8094,301.0417,58.9299,0,U,20511,999,85335,.6933E-4,.562E-5,0
HST,1990-037B,2024-07-07T10:29:09.017088,15.18002489,.0002309,28.4668,209.4325,250.0269,110.0075,0,U,20580,999,68011,.21201E-3,.4627E-4,0
SL-16 R/B,1990-046B,2024-07-08T03:55:52.173984,14.14847766,.0013252,70.9996,137.8760,159.4581,200.7078,0,U,20625,999,76242,.77641E-4,.102E-5,0
COSMOS 2084,1990-055A,2024-07-07T10:44:38.138496,14.98984025,.01097,62.7901,248.1739,122.0374,239.1436,0,U,20663,999,84460,.21925E-3,.2805E-4,0
SL-6 R/B(2),1990-055D,2024-07-07T20:05:13.056288,14.98337244,.0083124,62.7831,160.7832,145.2481,215.4086,0,U,20666,999,84609,.21069E-3,.2498E-4,0
SL-8 R/B,1990-078B,2024-07-07T18:35:15.504864,14.61373927,.0465284,82.9148,68.6171,226.3074,129.8699,0,U,20775,999,71932,.39345E-3,.9905E-4,0
SL-8 R/B,1991-006B,2024-07-07T14:34:43.042368,13.77352733,.0021281,82.9420,263.8510,305.9320,167.2519,0,U,21088,999,68008,.72993E-4,.88E-6,0
OKEAN-3,1991-039A,2024-07-07T12:53:35.179008,14.98458113,.0014664,82.5178,205.4439,236.5043,123.4780,0,U,21397,999,77344,.25085E-3,.3028E-4,0
COSMOS 2151,1991-042A,2024-07-07T20:10:56.317440,14.95974363,.0012358,82.5004,310.1778,320.7995,39.2330,0,U,21422,999,79302,.19179E-3,.2177E-4,0
SL-14 R/B,1991-042B,2024-07-07T18:23:44.317824,14.80821786,.0018863,82.4930,71.7865,84.7654,275.5711,0,U,21423,999,78381,.71246E-4,.574E-5,0
ERS-1,1991-050A,2024-07-08T05:11:15.333216,14.38576831,.0031824,98.7777,182.3857,207.5497,152.4004,0,U,21574,999,72805,.11595E-3,.31E-5,0
ARIANE 40 R/B,1991-050F,2024-07-07T09:59:20.658048,14.41916784,.0004343,98.2888,250.7554,115.4869,244.6771,0,U,21610,999,73101,.16538E-3,.499E-5,0
INTERCOSMOS 25,1991-086A,2024-07-07T10:02:46.208832,12.08919786,.1500172,82.6063,318.1760,349.7589,7.5785,0,U,21819,999,42284,.28223E-3,.1427E-4,0
SL-8 R/B,1992-008B,2024-07-07T14:28:17.759712,13.75833843,.0035626,82.9274,1.4336,40.3578,28.6241,0,U,21876,999,62552,.81632E-5,.23E-6,0
SL-8 R/B,1992-020B,2024-07-07T14:42:59.056992,13.75426019,.0028795,82.9293,246.8310,197.9331,270.2808,0,U,21938,999,61726,.61322E-4,.74E-6,0
USA 81,1992-023A,2024-07-07T20:45:52.649280,14.31920885,.0002157,85.0088,123.2205,110.1343,250.0082,0,U,21949,999,750,.10035E-3,.289E-5,0
COSMOS 2219,1992-076A,2024-07-08T05:12:12.743424,14.13880840,.0016433,71.0593,211.9750,45.0819,315.1633,0,U,22219,999,63255,-.26773E-4,-.98E-6,0
SL-16 R/B,1992-076B,2024-07-07T14:40:44.366304,14.16670282,.0014644,71.0006,33.3358,300.2767,120.7749,0,U,22220,999,63542,.17167E-3,.295E-5,0
COSMOS 2221,1992-080A,2024-07-07T10:45:09.521568,14.91902569,.0017414,82.5068,141.8063,79.5250,280.7931,0,U,22236,999,68965,.24466E-3,.2505E-4,0
SL-16 R/B,1992-093B,2024-07-08T04:16:52.540032,14.15267283,.0003962,71.0195,203.6424,190.3168,169.7874,0,U,22285,999,62723,-.98382E-4,-.239E-5,0
COSMOS 2228,1992-094A,2024-07-07T20:24:52.118208,14.92421381,.0019135,82.5197,99.3222,185.8217,174.2784,0,U,22286,999,70600,.23442E-3,.2434E-4,0
SL-16 R/B,1993-016B,2024-07-07T09:11:22.138368,14.15142808,.0010327,71.0081,56.8674,183.5542,176.5509,0,U,22566,999,61582,.20565E-3,.352E-5,0
